CCSDS_OMM_VERS = 2.0
CREATION_DATE  = 
ORIGINATOR     = 

OBJECT_NAME    = DELTA 2 R/B(1)
OBJECT_ID      = 1990-008B
CENTER_NAME    = EARTH
REF_FRAME      = TEME
TIME_SYSTEM    = UTC
MEAN_ELEMENT_THEORY = SGP/SGP4

EPOCH          = 2026-01-25T13:24:11.437344
MEAN_MOTION    = 15.49978958
ECCENTRICITY   = .0100166
INCLINATION    = 35.6057
RA_OF_ASC_NODE = 96.6310
ARG_OF_PERICENTER = 219.1562
MEAN_ANOMALY   = 140.1891

EPHEMERIS_TYPE = 0
CLASSIFICATION_TYPE = U
NORAD_CAT_ID   = 20453
ELEMENT_SET_NO = 999
REV_AT_EPOCH   = 91942
BSTAR          = .10824E-2
MEAN_MOTION_DOT = .77746E-3
MEAN_MOTION_DDOT = 0

CCSDS_OMM_VERS = 2.0
CREATION_DATE  = 
ORIGINATOR     = 

OBJECT_NAME    = COSMOS 2058
OBJECT_ID      = 1990-010A
CENTER_NAME    = EARTH
REF_FRAME      = TEME
TIME_SYSTEM    = UTC
MEAN_ELEMENT_THEORY = SGP/SGP4

EPOCH          = 2026-01-26T06:26:56.695200
MEAN_MOTION    = 15.10926634
ECCENTRICITY   = .00115966
INCLINATION    = 82.4650
RA_OF_ASC_NODE = 89.2178
ARG_OF_PERICENTER = 115.7042
MEAN_ANOMALY   = 244.5387

EPHEMERIS_TYPE = 0
CLASSIFICATION_TYPE = U
NORAD_CAT_ID   = 20465
ELEMENT_SET_NO = 999
REV_AT_EPOCH   = 93583
BSTAR          = .30907082E-3
MEAN_MOTION_DOT = .5186E-4
MEAN_MOTION_DDOT = 0

CCSDS_OMM_VERS = 2.0
CREATION_DATE  = 
ORIGINATOR     = 

OBJECT_NAME    = SL-14 R/B
OBJECT_ID      = 1990-010B
CENTER_NAME    = EARTH
REF_FRAME      = TEME
TIME_SYSTEM    = UTC
MEAN_ELEMENT_THEORY = SGP/SGP4

EPOCH          = 2026-01-26T06:17:57.859872
MEAN_MOTION    = 14.83526269
ECCENTRICITY   = .00214153
INCLINATION    = 82.5044
RA_OF_ASC_NODE = 307.2377
ARG_OF_PERICENTER = 80.3396
MEAN_ANOMALY   = 280.0237

EPHEMERIS_TYPE = 0
CLASSIFICATION_TYPE = U
NORAD_CAT_ID   = 20466
ELEMENT_SET_NO = 999
REV_AT_EPOCH   = 92219
BSTAR          = .95861708E-4
MEAN_MOTION_DOT = .816E-5
MEAN_MOTION_DDOT = 0

CCSDS_OMM_VERS = 2.0
CREATION_DATE  = 
ORIGINATOR     = 

OBJECT_NAME    = SL-14 R/B
OBJECT_ID      = 1990-018B
CENTER_NAME    = EARTH
REF_FRAME      = TEME
TIME_SYSTEM    = UTC
MEAN_ELEMENT_THEORY = SGP/SGP4

EPOCH          = 2026-01-26T02:30:12.074688
MEAN_MOTION    = 14.82100418
ECCENTRICITY   = .00151823
INCLINATION    = 82.5199
RA_OF_ASC_NODE = 262.9025
ARG_OF_PERICENTER = 229.0756
MEAN_ANOMALY   = 130.9145

EPHEMERIS_TYPE = 0
CLASSIFICATION_TYPE = U
NORAD_CAT_ID   = 20511
ELEMENT_SET_NO = 999
REV_AT_EPOCH   = 91627
BSTAR          = .83311776E-4
MEAN_MOTION_DOT = .687E-5
MEAN_MOTION_DDOT = 0

CCSDS_OMM_VERS = 2.0
CREATION_DATE  = 
ORIGINATOR     = 

OBJECT_NAME    = HST
OBJECT_ID      = 1990-037B
CENTER_NAME    = EARTH
REF_FRAME      = TEME
TIME_SYSTEM    = UTC
MEAN_ELEMENT_THEORY = SGP/SGP4

EPOCH          = 2026-01-25T20:49:40.652832
MEAN_MOTION    = 15.28757175
ECCENTRICITY   = .00017572
INCLINATION    = 28.4682
RA_OF_ASC_NODE = 331.9691
ARG_OF_PERICENTER = 3.6711
MEAN_ANOMALY   = 356.3897

EPHEMERIS_TYPE = 0
CLASSIFICATION_TYPE = U
NORAD_CAT_ID   = 20580
ELEMENT_SET_NO = 999
REV_AT_EPOCH   = 76675
BSTAR          = .37628043E-3
MEAN_MOTION_DOT = .11062E-3
MEAN_MOTION_DDOT = 0

CCSDS_OMM_VERS = 2.0
CREATION_DATE  = 
ORIGINATOR     = 

OBJECT_NAME    = SL-16 R/B
OBJECT_ID      = 1990-046B
CENTER_NAME    = EARTH
REF_FRAME      = TEME
TIME_SYSTEM    = UTC
MEAN_ELEMENT_THEORY = SGP/SGP4

EPOCH          = 2026-01-26T06:46:09.238368
MEAN_MOTION    = 14.15007025
ECCENTRICITY   = .00141137
INCLINATION    = 70.9993
RA_OF_ASC_NODE = 26.9751
ARG_OF_PERICENTER = 358.4228
MEAN_ANOMALY   = 1.6848

EPHEMERIS_TYPE = 0
CLASSIFICATION_TYPE = U
NORAD_CAT_ID   = 20625
ELEMENT_SET_NO = 999
REV_AT_EPOCH   = 84239
BSTAR          = -.83707214E-4
MEAN_MOTION_DOT = -.21E-5
MEAN_MOTION_DDOT = 0

CCSDS_OMM_VERS = 2.0
CREATION_DATE  = 
ORIGINATOR     = 

OBJECT_NAME    = COSMOS 2084
OBJECT_ID      = 1990-055A
CENTER_NAME    = EARTH
REF_FRAME      = TEME
TIME_SYSTEM    = UTC
MEAN_ELEMENT_THEORY = SGP/SGP4

EPOCH          = 2026-01-25T16:21:00.889056
MEAN_MOTION    = 15.05354908
ECCENTRICITY   = .00241345
INCLINATION    = 62.7903
RA_OF_ASC_NODE = 122.2341
ARG_OF_PERICENTER = 181.4292
MEAN_ANOMALY   = 178.6744

EPHEMERIS_TYPE = 0
CLASSIFICATION_TYPE = U
NORAD_CAT_ID   = 20663
ELEMENT_SET_NO = 999
REV_AT_EPOCH   = 92984
BSTAR          = .34626251E-3
MEAN_MOTION_DOT = .4815E-4
MEAN_MOTION_DDOT = 0

CCSDS_OMM_VERS = 2.0
CREATION_DATE  = 
ORIGINATOR     = 

OBJECT_NAME    = SL-6 R/B(2)
OBJECT_ID      = 1990-055D
CENTER_NAME    = EARTH
REF_FRAME      = TEME
TIME_SYSTEM    = UTC
MEAN_ELEMENT_THEORY = SGP/SGP4

EPOCH          = 2026-01-26T06:30:15.235488
MEAN_MOTION    = 15.03341391
ECCENTRICITY   = .00186557
INCLINATION    = 62.7841
RA_OF_ASC_NODE = 38.0749
ARG_OF_PERICENTER = 333.8072
MEAN_ANOMALY   = 26.2082

EPHEMERIS_TYPE = 0
CLASSIFICATION_TYPE = U
NORAD_CAT_ID   = 20666
ELEMENT_SET_NO = 999
REV_AT_EPOCH   = 93181
BSTAR          = .27192345E-3
MEAN_MOTION_DOT = .3525E-4
MEAN_MOTION_DDOT = 0

CCSDS_OMM_VERS = 2.0
CREATION_DATE  = 
ORIGINATOR     = 

OBJECT_NAME    = SL-8 R/B
OBJECT_ID      = 1990-078B
CENTER_NAME    = EARTH
REF_FRAME      = TEME
TIME_SYSTEM    = UTC
MEAN_ELEMENT_THEORY = SGP/SGP4

EPOCH          = 2026-01-26T03:39:50.056416
MEAN_MOTION    = 14.87582589
ECCENTRICITY   = .03680244
INCLINATION    = 82.9048
RA_OF_ASC_NODE = 289.5176
ARG_OF_PERICENTER = 156.4990
MEAN_ANOMALY   = 205.3547

EPHEMERIS_TYPE = 0
CLASSIFICATION_TYPE = U
NORAD_CAT_ID   = 20775
ELEMENT_SET_NO = 999
REV_AT_EPOCH   = 80297
BSTAR          = .72362518E-3
MEAN_MOTION_DOT = .24209E-3
MEAN_MOTION_DDOT = 0

CCSDS_OMM_VERS = 2.0
CREATION_DATE  = 
ORIGINATOR     = 

OBJECT_NAME    = SL-8 R/B
OBJECT_ID      = 1991-006B
CENTER_NAME    = EARTH
REF_FRAME      = TEME
TIME_SYSTEM    = UTC
MEAN_ELEMENT_THEORY = SGP/SGP4

EPOCH          = 2026-01-25T13:12:25.818048
MEAN_MOTION    = 13.77492019
ECCENTRICITY   = .0023027
INCLINATION    = 82.9410
RA_OF_ASC_NODE = 202.1226
ARG_OF_PERICENTER = 153.3052
MEAN_ANOMALY   = 265.5163

EPHEMERIS_TYPE = 0
CLASSIFICATION_TYPE = U
NORAD_CAT_ID   = 21088
ELEMENT_SET_NO = 999
REV_AT_EPOCH   = 75813
BSTAR          = .13183E-4
MEAN_MOTION_DOT = .29E-6
MEAN_MOTION_DDOT = 0

CCSDS_OMM_VERS = 2.0
CREATION_DATE  = 
ORIGINATOR     = 

OBJECT_NAME    = OKEAN-3
OBJECT_ID      = 1991-039A
CENTER_NAME    = EARTH
REF_FRAME      = TEME
TIME_SYSTEM    = UTC
MEAN_ELEMENT_THEORY = SGP/SGP4

EPOCH          = 2026-01-26T06:00:01.105920
MEAN_MOTION    = 15.04450439
ECCENTRICITY   = .00158809
INCLINATION    = 82.5169
RA_OF_ASC_NODE = 17.9464
ARG_OF_PERICENTER = 111.8821
MEAN_ANOMALY   = 248.4096

EPHEMERIS_TYPE = 0
CLASSIFICATION_TYPE = U
NORAD_CAT_ID   = 21397
ELEMENT_SET_NO = 999
REV_AT_EPOCH   = 85865
BSTAR          = .40496315E-3
MEAN_MOTION_DOT = .5704E-4
MEAN_MOTION_DDOT = 0

CCSDS_OMM_VERS = 2.0
CREATION_DATE  = 
ORIGINATOR     = 

OBJECT_NAME    = COSMOS 2151
OBJECT_ID      = 1991-042A
CENTER_NAME    = EARTH
REF_FRAME      = TEME
TIME_SYSTEM    = UTC
MEAN_ELEMENT_THEORY = SGP/SGP4

EPOCH          = 2026-01-26T07:46:33.561984
MEAN_MOTION    = 14.99920484
ECCENTRICITY   = .00121394
INCLINATION    = 82.4975
RA_OF_ASC_NODE = 124.5358
ARG_OF_PERICENTER = 195.9768
MEAN_ANOMALY   = 164.1075

EPHEMERIS_TYPE = 0
CLASSIFICATION_TYPE = U
NORAD_CAT_ID   = 21422
ELEMENT_SET_NO = 999
REV_AT_EPOCH   = 85684
BSTAR          = .2549373E-3
MEAN_MOTION_DOT = .3193E-4
MEAN_MOTION_DDOT = 0

