DELTA 2 R/B(1)          
1 20453U 90008B   26025.55846571  .00077746  00000+0  10824-2 0  9994
2 20453  35.6057  96.6310 0100166 219.1562 140.1891 15.49978958919421
COSMOS 2058             
1 20465U 90010A   26026.26871175  .00005186  00000+0  30907-3 0  9991
2 20465  82.4650  89.2178 0011596 115.7042 244.5387 15.10926634935839
SL-14 R/B               
1 20466U 90010B   26026.26247523  .00000816  00000+0  95862-4 0  9993
2 20466  82.5044 307.2377 0021415  80.3396 280.0237 14.83526269922195
SL-14 R/B               
1 20511U 90018B   26026.10430642  .00000687  00000+0  83312-4 0  9994
2 20511  82.5199 262.9025 0015182 229.0756 130.9145 14.82100418916276
HST                     
1 20580U 90037B   26025.86783163  .00011062  00000+0  37628-3 0  9999
2 20580  28.4682 331.9691 0001757   3.6711 356.3897 15.28757175766757
SL-16 R/B               
1 20625U 90046B   26026.28205137 -.00000210  00000+0 -83707-4 0  9991
2 20625  70.9993  26.9751 0014113 358.4228   1.6848 14.15007025842394
COSMOS 2084             
1 20663U 90055A   26025.68126029  .00004815  00000+0  34626-3 0  9996
2 20663  62.7903 122.2341 0024134 181.4292 178.6744 15.05354908929841
SL-6 R/B(2)             
1 20666U 90055D   26026.27100967  .00003525  00000+0  27192-3 0  9995
2 20666  62.7841  38.0749 0018655 333.8072  26.2082 15.03341391931814
SL-8 R/B                
1 20775U 90078B   26026.15266269  .00024209  00000+0  72363-3 0  9998
2 20775  82.9048 289.5176 0368024 156.4990 205.3547 14.87582589802978
SL-8 R/B                
1 21088U 91006B   26025.55029882  .00000029  00000+0  13183-4 0  9999
2 21088  82.9410 202.1226 0023027 153.3052 265.5163 13.77492019758138
OKEAN-3                 
1 21397U 91039A   26026.25001280  .00005704  00000+0  40496-3 0  9999
2 21397  82.5169  17.9464 0015880 111.8821 248.4096 15.04450439858650
COSMOS 2151             
1 21422U 91042A   26026.32399956  .00003193  00000+0  25494-3 0  9991
2 21422  82.4975 124.5358 0012139 195.9768 164.1075 14.99920484856842
